
    {
        "ARG_OF_PERICENTER": 80.1563,
        "BSTAR": 0.00038153162,
        "CLASSIFICATION_TYPE": "U",
        "ECCENTRICITY": 0.01296426,
        "ELEMENT_SET_NO": 999,
        "EPHEMERIS_TYPE": 0,
        "EPOCH": "2026-05-05T04:28:18.451488",
        "INCLINATION": 64.7693,
        "MEAN_ANOMALY": 281.4158,
        "MEAN_MOTION": 14.91209714,
        "MEAN_MOTION_DDOT": 0,
        "MEAN_MOTION_DOT": 4.293e-05,
        "NORAD_CAT_ID": 40965,
        "OBJECT_ID": "2015-058B",
        "OBJECT_NAME": "AEROCUBE 5C",
        "RA_OF_ASC_NODE": 36.3376,
        "REV_AT_EPOCH": 35924
    },
    {
        "ARG_OF_PERICENTER": 78.8025,
        "BSTAR": 0.00049124,
        "CLASSIFICATION_TYPE": "U",
        "ECCENTRICITY": 0.0119484,
        "ELEMENT_SET_NO": 999,
        "EPHEMERIS_TYPE": 0,
        "EPOCH": "2026-05-05T10:30:39.494304",
        "INCLINATION": 64.7644,
        "MEAN_ANOMALY": 282.6493,
        "MEAN_MOTION": 14.95393893,
        "MEAN_MOTION_DDOT": 0,
        "MEAN_MOTION_DOT": 6.106e-05,
        "NORAD_CAT_ID": 40966,
        "OBJECT_ID": "2015-058C",
        "OBJECT_NAME": "AEROCUBE 7",
        "RA_OF_ASC_NODE": 18.6811,
        "REV_AT_EPOCH": 35956
    },
    {
        "ARG_OF_PERICENTER": 73.3274,
        "BSTAR": 0.00035393,
        "CLASSIFICATION_TYPE": "U",
        "ECCENTRICITY": 0.0128721,
        "ELEMENT_SET_NO": 999,
        "EPHEMERIS_TYPE": 0,
        "EPOCH": "2026-05-05T11:42:57.225312",
        "INCLINATION": 64.7768,
        "MEAN_ANOMALY": 288.1922,
        "MEAN_MOTION": 14.90716957,
        "MEAN_MOTION_DDOT": 0,
        "MEAN_MOTION_DOT": 3.907e-05,
        "NORAD_CAT_ID": 40967,
        "OBJECT_ID": "2015-058D",
        "OBJECT_NAME": "FOX-1A (AO-85)",
        "RA_OF_ASC_NODE": 51.6513,
        "REV_AT_EPOCH": 10720
    },
    {
        "ARG_OF_PERICENTER": 70.2976,
        "BSTAR": 0.0005269432,
        "CLASSIFICATION_TYPE": "U",
        "ECCENTRICITY": 0.01172168,
        "ELEMENT_SET_NO": 999,
        "EPHEMERIS_TYPE": 0,
        "EPOCH": "2026-05-05T03:41:04.354368",
        "INCLINATION": 64.7771,
        "MEAN_ANOMALY": 291.0739,
        "MEAN_MOTION": 14.95566901,
        "MEAN_MOTION_DDOT": 0,
        "MEAN_MOTION_DOT": 6.56e-05,
        "NORAD_CAT_ID": 40968,
        "OBJECT_ID": "2015-058E",
        "OBJECT_NAME": "SINOD-D 1",
        "RA_OF_ASC_NODE": 33.6405,
        "REV_AT_EPOCH": 11022
    },
    {
        "ARG_OF_PERICENTER": 36.0552,
        "BSTAR": 0.0014172,
        "CLASSIFICATION_TYPE": "U",
        "ECCENTRICITY": 0.0032083,
        "ELEMENT_SET_NO": 999,
        "EPHEMERIS_TYPE": 0,
        "EPOCH": "2026-05-05T10:11:22.837632",
        "INCLINATION": 64.7539,
        "MEAN_ANOMALY": 324.2745,
        "MEAN_MOTION": 15.52503878,
        "MEAN_MOTION_DDOT": 0,
        "MEAN_MOTION_DOT": 0.00090067,
        "NORAD_CAT_ID": 40970,
        "OBJECT_ID": "2015-058G",
        "OBJECT_NAME": "SNAP-3 ALICE",
        "RA_OF_ASC_NODE": 250.7635,
        "REV_AT_EPOCH": 11023
    },
    {
        "ARG_OF_PERICENTER": 75.3452,
        "BSTAR": 0.00035587,
        "CLASSIFICATION_TYPE": "U",
        "ECCENTRICITY": 0.0130545,
        "ELEMENT_SET_NO": 999,
        "EPHEMERIS_TYPE": 0,
        "EPOCH": "2026-05-05T11:59:42.810720",
        "INCLINATION": 64.7776,
        "MEAN_ANOMALY": 286.209,
        "MEAN_MOTION": 14.90343328,
        "MEAN_MOTION_DDOT": 0,
        "MEAN_MOTION_DOT": 3.907e-05,
        "NORAD_CAT_ID": 40971,
        "OBJECT_ID": "2015-058H",
        "OBJECT_NAME": "LMRST-SAT",
        "RA_OF_ASC_NODE": 47.8731,
        "REV_AT_EPOCH": 10719
    },
    {
        "ARG_OF_PERICENTER": 39.7983,
        "BSTAR": 0.0013204,
        "CLASSIFICATION_TYPE": "U",
        "ECCENTRICITY": 0.0032706,
        "ELEMENT_SET_NO": 999,
        "EPHEMERIS_TYPE": 0,
        "EPOCH": "2026-05-05T10:43:35.724000",
        "INCLINATION": 64.7458,
        "MEAN_ANOMALY": 320.555,
        "MEAN_MOTION": 15.53607113,
        "MEAN_MOTION_DDOT": 0,
        "MEAN_MOTION_DOT": 0.00087389,
        "NORAD_CAT_ID": 40972,
        "OBJECT_ID": "2015-058J",
        "OBJECT_NAME": "SNAP-3 EDDIE",
        "RA_OF_ASC_NODE": 241.7148,
        "REV_AT_EPOCH": 11237
    },
    {
        "ARG_OF_PERICENTER": 76.9204,
        "BSTAR": 0.00045594,
        "CLASSIFICATION_TYPE": "U",
        "ECCENTRICITY": 0.0122766,
        "ELEMENT_SET_NO": 999,
        "EPHEMERIS_TYPE": 0,
        "EPOCH": "2026-05-05T10:31:42.891168",
        "INCLINATION": 64.7707,
        "MEAN_ANOMALY": 284.5579,
        "MEAN_MOTION": 14.93965928,
        "MEAN_MOTION_DDOT": 0,
        "MEAN_MOTION_DOT": 5.479e-05,
        "NORAD_CAT_ID": 40973,
        "OBJECT_ID": "2015-058K",
        "OBJECT_NAME": "PROPCUBE 3",
        "RA_OF_ASC_NODE": 26.0673,
        "REV_AT_EPOCH": 10841
    },
    {
        "ARG_OF_PERICENTER": 66.3896,
        "BSTAR": 0.00067502676,
        "CLASSIFICATION_TYPE": "U",
        "ECCENTRICITY": 0.00781981,
        "ELEMENT_SET_NO": 999,
        "EPHEMERIS_TYPE": 0,
        "EPOCH": "2026-05-04T22:46:27.043968",
        "INCLINATION": 64.7595,
        "MEAN_ANOMALY": 294.5414,
        "MEAN_MOTION": 15.15307189,
        "MEAN_MOTION_DDOT": 0,
        "MEAN_MOTION_DOT": 0.00013616,
        "NORAD_CAT_ID": 40974,
        "OBJECT_ID": "2015-058L",
        "OBJECT_NAME": "BISONSAT",
        "RA_OF_ASC_NODE": 313.3342,
        "REV_AT_EPOCH": 10906
    },
    {
        "ARG_OF_PERICENTER": 73.2338,
        "BSTAR": 0.00046086878,
        "CLASSIFICATION_TYPE": "U",
        "ECCENTRICITY": 0.01047571,
        "ELEMENT_SET_NO": 999,
        "EPHEMERIS_TYPE": 0,
        "EPOCH": "2026-05-05T01:06:23.849568",
        "INCLINATION": 64.7666,
        "MEAN_ANOMALY": 288.0241,
        "MEAN_MOTION": 15.01848549,
        "MEAN_MOTION_DDOT": 0,
        "MEAN_MOTION_DOT": 6.613e-05,
        "NORAD_CAT_ID": 40975,
        "OBJECT_ID": "2015-058M",
        "OBJECT_NAME": "SNAP-3 JIMI",
        "RA_OF_ASC_NODE": 356.2206,
        "REV_AT_EPOCH": 10774
    },
    {
        "ARG_OF_PERICENTER": 77.7135,
        "BSTAR": 0.00038315,
        "CLASSIFICATION_TYPE": "U",
        "ECCENTRICITY": 0.0129376,
        "ELEMENT_SET_NO": 999,
        "EPHEMERIS_TYPE": 0,
        "EPOCH": "2026-05-05T06:44:52.602432",
        "INCLINATION": 64.7755,
        "MEAN_ANOMALY": 283.8427,
        "MEAN_MOTION": 14.88979146,
        "MEAN_MOTION_DDOT": 0,
        "MEAN_MOTION_DOT": 4.055e-05,
        "NORAD_CAT_ID": 40976,
        "OBJECT_ID": "2015-058N",
        "OBJECT_NAME": "PROPCUBE 1 (FLORA)",
        "RA_OF_ASC_NODE": 68.1857,
        "REV_AT_EPOCH": 10987
    },
    {
        "ARG_OF_PERICENTER": 75.2788,
        "BSTAR": 0.00050677917,
        "CLASSIFICATION_TYPE": "U",
        "ECCENTRICITY": 0.01178597,
        "ELEMENT_SET_NO": 999,
        "EPHEMERIS_TYPE": 0,
        "EPOCH": "2026-05-05T04:40:57.186048",
        "INCLINATION": 64.7741,
        "MEAN_ANOMALY": 286.1353,
        "MEAN_MOTION": 14.93687069,
        "MEAN_MOTION_DDOT": 0,
        "MEAN_MOTION_DOT": 5.993e-05,
        "NORAD_CAT_ID": 40977,
        "OBJECT_ID": "2015-058P",
        "OBJECT_NAME": "SINOD-D 3",
        "RA_OF_ASC_NODE": 50.0339,
        "REV_AT_EPOCH": 10833
    },
    {
        "ARG_OF_PERICENTER": 316.1635,
        "BSTAR": 0.0010074055,
        "CLASSIFICATION_TYPE": "U",
        "ECCENTRICITY": 0.00062415,
        "ELEMENT_SET_NO": 999,
        "EPHEMERIS_TYPE": 0,
        "EPOCH": "2026-05-04T21:25:57.015264",
        "INCLINATION": 30.9903,
        "MEAN_ANOMALY": 43.8525,
        "MEAN_MOTION": 15.75826777,
        "MEAN_MOTION_DDOT": 0,
        "MEAN_MOTION_DOT": 0.00165435,
        "NORAD_CAT_ID": 41340,
        "OBJECT_ID": "2016-012D",
        "OBJECT_NAME": "HORYU-4",
        "RA_OF_ASC_NODE": 31.3534,
        "REV_AT_EPOCH": 56394
    }