AEROCUBE 5C             
1 40965U 15058B   26125.18632467  .00004293  00000+0  38153-3 0  9996
2 40965  64.7693  36.3376 0129642  80.1563 281.4158 14.91209714359246
AEROCUBE 7              
1 40966U 15058C   26125.43795711  .00006106  00000+0  49124-3 0  9992
2 40966  64.7644  18.6811 0119484  78.8025 282.6493 14.95393893359566
FOX-1A (AO-85)          
1 40967U 15058D   26125.48816233  .00003907  00000+0  35393-3 0  9990
2 40967  64.7768  51.6513 0128721  73.3274 288.1922 14.90716957107205
SINOD-D 1               
1 40968U 15058E   26125.15352262  .00006560  00000+0  52694-3 0  9993
2 40968  64.7771  33.6405 0117216  70.2976 291.0739 14.95566901110224
SNAP-3 ALICE            
1 40970U 15058G   26125.42456988  .00090067  00000+0  14172-2 0  9999
2 40970  64.7539 250.7635 0032083  36.0552 324.2745 15.52503878110239
LMRST-SAT               
1 40971U 15058H   26125.49980105  .00003907  00000+0  35587-3 0  9991
2 40971  64.7776  47.8731 0130545  75.3452 286.2090 14.90343328107196
SNAP-3 EDDIE            
1 40972U 15058J   26125.44694125  .00087389  00000+0  13204-2 0  9998
2 40972  64.7458 241.7148 0032706  39.7983 320.5550 15.53607113112378
PROPCUBE 3              
1 40973U 15058K   26125.43869087  .00005479  00000+0  45594-3 0  9997
2 40973  64.7707  26.0673 0122766  76.9204 284.5579 14.93965928108412
BISONSAT                
1 40974U 15058L   26124.94892412  .00013616  00000+0  67503-3 0  9997
2 40974  64.7595 313.3342 0078198  66.3896 294.5414 15.15307189109067
SNAP-3 JIMI             
1 40975U 15058M   26125.04610937  .00006613  00000+0  46087-3 0  9993
2 40975  64.7666 356.2206 0104757  73.2338 288.0241 15.01848549107745
PROPCUBE 1 (FLORA)      
1 40976U 15058N   26125.28116438  .00004055  00000+0  38315-3 0  9990
2 40976  64.7755  68.1857 0129376  77.7135 283.8427 14.88979146109871
SINOD-D 3               
1 40977U 15058P   26125.19510632  .00005993  00000+0  50678-3 0  9993
2 40977  64.7741  50.0339 0117859  75.2788 286.1353 14.93687069108332
HORYU-4                 
1 41340U 16012D   26124.89302101  .00165435  00000+0  10074-2 0  9998
2 41340  30.9903  31.3534 0006241 316.1635  43.8525 15.75826777563944
